NORAD_CAT_ID,OBJECT_NAME,OBJECT_TYPE,EPOCH,MEAN_MOTION,ECCENTRICITY,INCLINATION,RA_OF_ASC_NODE,ARG_OF_PERICENTER,MEAN_ANOMALY,BSTAR,MEAN_MOTION_DOT,MEAN_MOTION_DDOT,TLE_LINE0,TLE_LINE1,TLE_LINE2,SEMIMAJOR_AXIS,PERIOD,APOGEE,PERIGEE,DECAYED
49771.0,STARLINK-3201,PAYLOAD,2022-09-16 18:43:34,15.08838632,0.0001213,53.2167,79.9641,50.01,310.0998,0.00010405,1.368e-05,0.0,0 STARLINK-3201,1 49771U 21115AZ  22259.78025802  .00001368  00000-0  10405-3 0  9991,2 49771  53.2167  79.9641 0001213  50.0100 310.0998 15.08838632 43969,6917.885,95.438,540.589,538.91,0.0
49771.0,STARLINK-3201,PAYLOAD,2022-09-17 12:12:49,15.08834886,0.0001307,53.2165,76.6927,54.5646,305.5468,-9.4439e-06,-4.38e-06,0.0,0 STARLINK-3201,1 49771U 21115AZ  22260.50890446 -.00000438  00000-0 -94439-5 0  9997,2 49771  53.2165  76.6927 0001307  54.5646 305.5468 15.08834886 44077,6917.896,95.438,540.665,538.857,0.0
49771.0,STARLINK-3201,PAYLOAD,2022-09-17 18:34:22,15.08797968,0.0001815,53.2165,75.5038,62.1417,297.9759,0.00063788,9.867e-05,0.0,0 STARLINK-3201,1 49771U 21115AZ  22260.77387221  .00009867  00000-0  63788-3 0  9992,2 49771  53.2165  75.5038 0001815  62.1417 297.9759 15.08797968 44114,6918.009,95.44,541.129,538.618,0.0
49771.0,STARLINK-3201,PAYLOAD,2022-09-17 21:45:07,15.08841615,0.0001469,53.2164,74.9084,63.2372,296.877,5.2413e-05,5.46e-06,0.0,0 STARLINK-3201,1 49771U 21115AZ  22260.90633850  .00000546  00000-0  52413-4 0  9998,2 49771  53.2164  74.9084 0001469  63.2372 296.8770 15.08841615 45249,6917.875,95.437,540.757,538.724,0.0
49771.0,STARLINK-3201,PAYLOAD,2022-09-18 12:03:36,15.08843925,0.0001610999999999,53.2175,72.2326,67.0607,293.0555,-8.1915e-05,-1.592e-05,0.0,0 STARLINK-3201,1 49771U 21115AZ  22261.50250265 -.00001592  00000-0 -81915-4 0  9993,2 49771  53.2175  72.2326 0001611  67.0607 293.0555 15.08843925 44226,6917.868,95.437,540.8480000000002,538.619,0.0
49771.0,STARLINK-3201,PAYLOAD,2022-09-18 20:00:32,15.0883303,0.0001565999999999,53.2174,70.7463,61.6345,298.4805,1.381e-05,-6.8e-07,0.0,0 STARLINK-3201,1 49771U 21115AZ  22261.83370648 -.00000068  00000-0  13810-4 0  9992,2 49771  53.2174  70.7463 0001566  61.6345 298.4805 15.08833030 45389,6917.901999999999,95.438,540.85,538.683,0.0
49771.0,STARLINK-3201,PAYLOAD,2022-09-19 11:54:23,15.08842233,0.0001571999999999,53.2175,67.7717,59.6684,300.4464,6.9261e-05,8.15e-06,0.0,0 STARLINK-3201,1 49771U 21115AZ  22262.49610103  .00000815  00000-0  69261-4 0  9998,2 49771  53.2175  67.7717 0001572  59.6684 300.4464 15.08842233 45489,6917.874,95.437,540.826,538.651,0.0
49771.0,STARLINK-3201,PAYLOAD,2022-09-19 18:15:54,15.08885732,0.0001354,53.2176,66.5821,62.4298,297.6832,-0.00054045,-8.89e-05,0.0,0 STARLINK-3201,1 49771U 21115AZ  22262.76104980 -.00008890  00000-0 -54045-3 0  9995,2 49771  53.2176  66.5821 0001354  62.4298 297.6832 15.08885732 45526,6917.741,95.435,540.5419999999998,538.669,0.0
49771.0,STARLINK-3201,PAYLOAD,2022-09-20 03:48:15,15.08833174,0.0001506,53.2174,64.7983,64.4153,295.6994,-2.3643e-06,-3.26e-06,0.0,0 STARLINK-3201,1 49771U 21115AZ  22263.15850920 -.00000326  00000-0 -23643-5 0  9999,2 49771  53.2174  64.7983 0001506  64.4153 295.6994 15.08833174 45580,6917.901,95.438,540.808,538.724,0.0
49771.0,STARLINK-3201,PAYLOAD,2022-09-20 10:09:47,15.08849679,0.0001612,53.2167,63.608,55.8885,304.2259,-0.00019293,-3.358e-05,0.0,0 STARLINK-3201,1 49771U 21115AZ  22263.42346286 -.00003358  00000-0 -19293-3 0  9996,2 49771  53.2167  63.6080 0001612  55.8885 304.2259 15.08849679 45625,6917.851,95.437,540.831,538.601,0.0
49771.0,STARLINK-3201,PAYLOAD,2022-09-21 17:57:29,15.08848902,0.0001595,53.2171,57.6622,62.2025,297.9128,-3.5135e-05,-8.47e-06,0.0,0 STARLINK-3201,1 49771U 21115AZ  22264.74826150 -.00000847  00000-0 -35135-4 0  9999,2 49771  53.2171  57.6622 0001595  62.2025 297.9128 15.08848902 45826,6917.853,95.437,540.822,538.615,0.0
49771.0,STARLINK-3201,PAYLOAD,2022-09-22 03:29:48,15.08842101,0.0001613,53.2176,55.8771,58.0004,302.1145,5.7362e-05,6.25e-06,0.0,0 STARLINK-3201,1 49771U 21115AZ  22265.14570387  .00000625  00000-0  57362-4 0  9990,2 49771  53.2176  55.8771 0001613  58.0004 302.1145 15.08842101 44773,6917.874,95.437,540.855,538.623,0.0
49771.0,STARLINK-3201,PAYLOAD,2022-09-22 16:12:54,15.08835028,0.0001652,53.2177,53.4982,59.7508,300.3647,2.2717e-06,-2.52e-06,0.0,0 STARLINK-3201,1 49771U 21115AZ  22265.67563125 -.00000252  00000-0  22717-5 0  9994,2 49771  53.2177  53.4982 0001652  59.7508 300.3647 15.08835028 44858,6917.896,95.438,540.903,538.618,0.0
49771.0,STARLINK-3201,PAYLOAD,2022-09-23 12:52:54,15.08844169,0.0001551999999999,53.2176,49.6323,56.4302,303.6838,4.9744e-05,5.04e-06,0.0,0 STARLINK-3201,1 49771U 21115AZ  22266.53674440  .00000504  00000-0  49744-4 0  9990,2 49771  53.2176  49.6323 0001552  56.4302 303.6838 15.08844169 46090,6917.868,95.437,540.806,538.659,0.0
49771.0,STARLINK-3201,PAYLOAD,2022-09-23 19:14:26,15.08847271,0.0001571999999999,53.2177,48.4431,55.6428,304.4713,0.00011362,1.521e-05,0.0,0 STARLINK-3201,1 49771U 21115AZ  22266.80169988  .00001521  00000-0  11362-3 0  9990,2 49771  53.2177  48.4431 0001572  55.6428 304.4713 15.08847271 45020,6917.858,95.437,540.811,538.636,0.0
49771.0,STARLINK-3201,PAYLOAD,2022-09-24 12:43:41,15.08842282,0.000155,53.2177,45.172,54.9353,305.1784,0.00011446,1.534e-05,0.0,0 STARLINK-3201,1 49771U 21115AZ  22267.53034183  .00001534  00000-0  11446-3 0  9996,2 49771  53.2177  45.1720 0001550  54.9353 305.1784 15.08842282 45135,6917.873000000001,95.437,540.811,538.6659999999998,0.0
49771.0,STARLINK-3201,PAYLOAD,2022-09-24 19:05:13,15.08847742,0.000148,53.2177,43.9824,56.3666,303.7467,0.00014966,2.095e-05,0.0,0 STARLINK-3201,1 49771U 21115AZ  22267.79529686  .00002095  00000-0  14966-3 0  9994,2 49771  53.2177  43.9824 0001480  56.3666 303.7467 15.08847742 45173,6917.857,95.437,540.746,538.698,0.0
49771.0,STARLINK-3201,PAYLOAD,2022-09-25 04:37:32,15.08843555,0.0001534,53.2179,42.1985,55.8079,304.3059,6.4101e-05,7.32e-06,0.0,0 STARLINK-3201,1 49771U 21115AZ  22268.19274113  .00000732  00000-0  64101-4 0  9994,2 49771  53.2179  42.1985 0001534  55.8079 304.3059 15.08843555 46348,6917.87,95.437,540.7959999999998,538.673,0.0
49771.0,STARLINK-3201,PAYLOAD,2022-09-25 12:34:29,15.08831162,0.0001665999999999,53.2177,40.7115,56.7838,303.3314,-6.3156e-05,-1.293e-05,0.0,0 STARLINK-3201,1 49771U 21115AZ  22268.52395218 -.00001293  00000-0 -63156-4 0  9995,2 49771  53.2177  40.7115 0001666  56.7838 303.3314 15.08831162 46393,6917.906999999997,95.438,540.925,538.62,0.0
49771.0,STARLINK-3201,PAYLOAD,2022-09-25 20:31:24,15.08836549,0.0001686,53.2177,39.2246,55.4928,304.6223,-4.9185e-05,-1.071e-05,0.0,0 STARLINK-3201,1 49771U 21115AZ  22268.85514876 -.00001071  00000-0 -49185-4 0  9994,2 49771  53.2177  39.2246 0001686  55.4928 304.6223 15.08836549 45339,6917.891,95.438,540.922,538.59,0.0
49771.0,STARLINK-3201,PAYLOAD,2022-09-26 12:25:16,15.08827973,0.0001623,53.2178,36.251,55.0589,305.0555,-4.504e-05,-1.005e-05,0.0,0 STARLINK-3201,1 49771U 21115AZ  22269.51755632 -.00001005  00000-0 -45040-4 0  9998,2 49771  53.2178  36.2510 0001623  55.0589 305.0555 15.08827973 45436,6917.917,95.438,540.905,538.659,0.0
49771.0,STARLINK-3201,PAYLOAD,2022-09-26 18:46:49,15.08832324,0.0001647,53.2178,35.0617,54.631,305.4835,-2.8623e-05,-7.43e-06,0.0,0 STARLINK-3201,1 49771U 21115AZ  22269.78251524 -.00000743  00000-0 -28623-4 0  9994,2 49771  53.2178  35.0617 0001647  54.6310 305.4835 15.08832324 46582,6917.904,95.438,540.908,538.629,0.0
49771.0,STARLINK-3201,PAYLOAD,2022-09-26 20:22:12,15.08834093,0.0001653,53.2177,34.7643,54.0961,306.0185,-2.6777e-05,-7.14e-06,0.0,0 STARLINK-3201,1 49771U 21115AZ  22269.84875451 -.00000714  00000-0 -26777-4 0  9998,2 49771  53.2177  34.7643 0001653  54.0961 306.0185 15.08834093 45487,6917.898,95.438,540.9069999999998,538.62,0.0
49771.0,STARLINK-3201,PAYLOAD,2022-09-27 04:19:07,15.08841825,0.0001658,53.2179,33.2776,53.2425,306.8719,-1.7063e-05,-5.6e-06,0.0,0 STARLINK-3201,1 49771U 21115AZ  22270.17995011 -.00000560  00000-0 -17063-4 0  9998,2 49771  53.2179  33.2776 0001658  53.2425 306.8719 15.08841825 46642,6917.875,95.437,540.887,538.5930000000002,0.0
49771.0,STARLINK-3201,PAYLOAD,2022-09-27 12:16:04,15.08830099,0.0001668,53.2178,31.7906,57.0769,303.0383,-1.6564e-05,-5.52e-06,0.0,0 STARLINK-3201,1 49771U 21115AZ  22270.51115934 -.00000552  00000-0 -16564-4 0  9990,2 49771  53.2178  31.7906 0001668  57.0769 303.0383 15.08830099 46695,6917.911,95.438,540.93,538.622,0.0
49771.0,STARLINK-3201,PAYLOAD,2022-09-27 20:12:59,15.08830839,0.0001702,53.218,30.3039,54.8874,305.2278,0.0001207,1.633e-05,0.0,0 STARLINK-3201,1 49771U 21115AZ  22270.84235832  .00001633  00000-0  12070-3 0  9992,2 49771  53.2180  30.3039 0001702  54.8874 305.2278 15.08830839 45633,6917.908,95.438,540.951,538.596,0.0
49771.0,STARLINK-3201,PAYLOAD,2022-09-28 02:34:31,15.08838477,0.0001607,53.218,29.1143,55.6377,304.4767,0.00016156,2.284e-05,0.0,0 STARLINK-3201,1 49771U 21115AZ  22271.10731400  .00002284  00000-0  16156-3 0  9996,2 49771  53.2180  29.1143 0001607  55.6377 304.4767 15.08838477 46783,6917.885,95.438,540.862,538.638,0.0
49771.0,STARLINK-3201,PAYLOAD,2022-09-28 12:06:50,15.08847273,0.0001662,53.218,27.3303,53.4753,306.6392,0.00030483,4.568e-05,0.0,0 STARLINK-3201,1 49771U 21115AZ  22271.50474784  .00004568  00000-0  30483-3 0  9995,2 49771  53.2180  27.3303 0001662  53.4753 306.6392 15.08847273 45732,6917.858,95.437,540.873,538.573,0.0
49771.0,STARLINK-3201,PAYLOAD,2022-09-28 18:28:23,15.08850536,0.0001873,53.2172,26.1409,47.3524,312.7626,0.00033217,5.004e-05,0.0,0 STARLINK-3201,1 49771U 21115AZ  22271.76971204  .00005004  00000-0  33217-3 0  9996,2 49771  53.2172  26.1409 0001873  47.3524 312.7626 15.08850536 45777,6917.848000000001,95.437,541.009,538.4169999999998,0.0
